[
    {
        "Altitude(m)": 706014.8699226654,
        "Argument of Periapsis(deg)": 0.0022780242373254137,
        "Eccentricity": 0.0,
        "Inclination(deg)": 45.0,
        "Latitude(deg)": 39.25229769895353,
        "Longitude(deg)": 170.50835683438524,
        "Mean Anomaly(deg)": 116.85214332949619,
        "RAAN(deg)": 144.99784961170838,
        "Satellite Name": "Constellation 1 645",
        "Satellite Number": 645,
        "Semi-Major Axis(m)": 7083131.272910544,
        "Time(s)": 38
    },
    {
        "Altitude(m)": 706009.5791603946,
        "Argument of Periapsis(deg)": 0.002337972243570819,
        "Eccentricity": 0.0,
        "Inclination(deg)": 45.0,
        "Latitude(deg)": 39.22718758803198,
        "Longitude(deg)": 170.57551582444052,
        "Mean Anomaly(deg)": 116.91284446974606,
        "RAAN(deg)": 144.9977930225428,
        "Satellite Name": "Constellation 1 645",
        "Satellite Number": 645,
        "Semi-Major Axis(m)": 7083131.272910544,
        "Time(s)": 39
    },
    {
        "Altitude(m)": 706004.2815275679,
        "Argument of Periapsis(deg)": 0.0023979202498162246,
        "Eccentricity": 0.0,
        "Inclination(deg)": 45.0,
        "Latitude(deg)": 39.20203381094974,
        "Longitude(deg)": 170.64262403447805,
        "Mean Anomaly(deg)": 116.973545609996,
        "RAAN(deg)": 144.9977364333772,
        "Satellite Name": "Constellation 1 645",
        "Satellite Number": 645,
        "Semi-Major Axis(m)": 7083131.272910544,
        "Time(s)": 40
    },
    {
        "Altitude(m)": 705998.9770565649,
        "Argument of Periapsis(deg)": 0.00245786825606163,
        "Eccentricity": 0.0,
        "Inclination(deg)": 45.0,
        "Latitude(deg)": 39.17683643710119,
        "Longitude(deg)": 170.70968145828175,
        "Mean Anomaly(deg)": 117.03424675024583,
        "RAAN(deg)": 144.99767984421166,
        "Satellite Name": "Constellation 1 645",
        "Satellite Number": 645,
        "Semi-Major Axis(m)": 7083131.272910544,
        "Time(s)": 41
    },
    {
        "Altitude(m)": 705993.6657798118,
        "Argument of Periapsis(deg)": 0.002517816262307036,
        "Eccentricity": 0.0,
        "Inclination(deg)": 45.0,
        "Latitude(deg)": 39.15159553586886,
        "Longitude(deg)": 170.776688090045,
        "Mean Anomaly(deg)": 117.09494789049577,
        "RAAN(deg)": 144.9976232550461,
        "Satellite Name": "Constellation 1 645",
        "Satellite Number": 645,
        "Semi-Major Axis(m)": 7083131.272910544,
        "Time(s)": 42
    },
    {
        "Altitude(m)": 705988.3477297958,
        "Argument of Periapsis(deg)": 0.0025777642685524413,
        "Eccentricity": 0.0,
        "Inclination(deg)": 45.0,
        "Latitude(deg)": 39.12631117662346,
        "Longitude(deg)": 170.8436439243681,
        "Mean Anomaly(deg)": 117.15564903074566,
        "RAAN(deg)": 144.99756666588053,
        "Satellite Name": "Constellation 1 645",
        "Satellite Number": 645,
        "Semi-Major Axis(m)": 7083131.272910544,
        "Time(s)": 43
    },
    {
        "Altitude(m)": 705983.0229390331,
        "Argument of Periapsis(deg)": 0.002637712274797847,
        "Eccentricity": 0.0,
        "Inclination(deg)": 45.0,
        "Latitude(deg)": 39.100983428722905,
        "Longitude(deg)": 170.91054878816098,
        "Mean Anomaly(deg)": 117.21635017099554,
        "RAAN(deg)": 144.99751007671495,
        "Satellite Name": "Constellation 1 645",
        "Satellite Number": 645,
        "Semi-Major Axis(m)": 7083131.272910544,
        "Time(s)": 44
    },
    {
        "Altitude(m)": 705977.6914401097,
        "Argument of Periapsis(deg)": 0.0026976602810432526,
        "Eccentricity": 0.0,
        "Inclination(deg)": 45.0,
        "Latitude(deg)": 39.0756123615112,
        "Longitude(deg)": 170.97740301302912,
        "Mean Anomaly(deg)": 117.27705131124547,
        "RAAN(deg)": 144.99745348754936,
        "Satellite Name": "Constellation 1 645",
        "Satellite Number": 645,
        "Semi-Major Axis(m)": 7083131.272910544,
        "Time(s)": 45
    },
    {
        "Altitude(m)": 705972.3532656436,
        "Argument of Periapsis(deg)": 0.0027576082872886585,
        "Eccentricity": 0.0,
        "Inclination(deg)": 45.0,
        "Latitude(deg)": 39.05019804431944,
        "Longitude(deg)": 171.04420642668995,
        "Mean Anomaly(deg)": 117.33775245149536,
        "RAAN(deg)": 144.9973968983838,
        "Satellite Name": "Constellation 1 645",
        "Satellite Number": 645,
        "Semi-Major Axis(m)": 7083131.272910544,
        "Time(s)": 46
    },
    {
        "Altitude(m)": 705967.0084483088,
        "Argument of Periapsis(deg)": 0.0028175562935340644,
        "Eccentricity": 0.0,
        "Inclination(deg)": 45.0,
        "Latitude(deg)": 39.024740546463995,
        "Longitude(deg)": 171.1109590253601,
        "Mean Anomaly(deg)": 117.39845359174528,
        "RAAN(deg)": 144.99734030921823,
        "Satellite Name": "Constellation 1 645",
        "Satellite Number": 645,
        "Semi-Major Axis(m)": 7083131.272910544,
        "Time(s)": 47
    },
    {
        "Altitude(m)": 705961.6570208259,
        "Argument of Periapsis(deg)": 0.00287750429977947,
        "Eccentricity": 0.0,
        "Inclination(deg)": 45.0,
        "Latitude(deg)": 38.99923993724652,
        "Longitude(deg)": 171.17766080565625,
        "Mean Anomaly(deg)": 117.45915473199516,
        "RAAN(deg)": 144.99728372005268,
        "Satellite Name": "Constellation 1 645",
        "Satellite Number": 645,
        "Semi-Major Axis(m)": 7083131.272910544,
        "Time(s)": 48
    },
    {
        "Altitude(m)": 705956.2990159593,
        "Argument of Periapsis(deg)": 0.002937452306024875,
        "Eccentricity": 0.0,
        "Inclination(deg)": 45.0,
        "Latitude(deg)": 38.97369628595317,
        "Longitude(deg)": 171.24431176459433,
        "Mean Anomaly(deg)": 117.51985587224509,
        "RAAN(deg)": 144.99722713088713,
        "Satellite Name": "Constellation 1 645",
        "Satellite Number": 645,
        "Semi-Major Axis(m)": 7083131.272910544,
        "Time(s)": 49
    },
    {
        "Altitude(m)": 705950.93446653,
        "Argument of Periapsis(deg)": 0.0029974003122702807,
        "Eccentricity": 0.0,
        "Inclination(deg)": 45.0,
        "Latitude(deg)": 38.948109661854375,
        "Longitude(deg)": 171.31091189958727,
        "Mean Anomaly(deg)": 117.58055701249495,
        "RAAN(deg)": 144.99717054172152,
        "Satellite Name": "Constellation 1 645",
        "Satellite Number": 645,
        "Semi-Major Axis(m)": 7083131.272910544,
        "Time(s)": 50
    },
    {
        "Altitude(m)": 705945.5634053949,
        "Argument of Periapsis(deg)": 0.0030573483185156866,
        "Eccentricity": 0.0,
        "Inclination(deg)": 45.0,
        "Latitude(deg)": 38.92248013420401,
        "Longitude(deg)": 171.37746120844466,
        "Mean Anomaly(deg)": 117.64125815274485,
        "RAAN(deg)": 144.99711395255596,
        "Satellite Name": "Constellation 1 645",
        "Satellite Number": 645,
        "Semi-Major Axis(m)": 7083131.272910544,
        "Time(s)": 51
    },
    {
        "Altitude(m)": 705940.1858654723,
        "Argument of Periapsis(deg)": 0.003117296324761092,
        "Eccentricity": 0.0,
        "Inclination(deg)": 45.0,
        "Latitude(deg)": 38.8968077722394,
        "Longitude(deg)": 171.44395952127317,
        "Mean Anomaly(deg)": 117.7019592929947,
        "RAAN(deg)": 144.99705736339038,
        "Satellite Name": "Constellation 1 645",
        "Satellite Number": 645,
        "Semi-Major Axis(m)": 7083131.272910544,
        "Time(s)": 52
    },
    {
        "Altitude(m)": 705934.8018797159,
        "Argument of Periapsis(deg)": 0.0031772443310064975,
        "Eccentricity": 0.0,
        "Inclination(deg)": 45.0,
        "Latitude(deg)": 38.871092645179424,
        "Longitude(deg)": 171.51040717286432,
        "Mean Anomaly(deg)": 117.76266043324469,
        "RAAN(deg)": 144.99700077422483,
        "Satellite Name": "Constellation 1 645",
        "Satellite Number": 645,
        "Semi-Major Axis(m)": 7083131.272910544,
        "Time(s)": 53
    },
    {
        "Altitude(m)": 705929.4114811306,
        "Argument of Periapsis(deg)": 0.0032371923372519038,
        "Eccentricity": 0.0,
        "Inclination(deg)": 45.0,
        "Latitude(deg)": 38.84533482222605,
        "Longitude(deg)": 171.57680399410964,
        "Mean Anomaly(deg)": 117.82336157349452,
        "RAAN(deg)": 144.99694418505928,
        "Satellite Name": "Constellation 1 645",
        "Satellite Number": 645,
        "Semi-Major Axis(m)": 7083131.272910544,
        "Time(s)": 54
    },
    {
        "Altitude(m)": 705924.0147027668,
        "Argument of Periapsis(deg)": 0.0032971403434973088,
        "Eccentricity": 0.0,
        "Inclination(deg)": 45.0,
        "Latitude(deg)": 38.81953437256239,
        "Longitude(deg)": 171.64314998438837,
        "Mean Anomaly(deg)": 117.88406271374444,
        "RAAN(deg)": 144.99688759589367,
        "Satellite Name": "Constellation 1 645",
        "Satellite Number": 645,
        "Semi-Major Axis(m)": 7083131.272910544,
        "Time(s)": 55
    },
    {
        "Altitude(m)": 705918.6115777261,
        "Argument of Periapsis(deg)": 0.0033570883497427146,
        "Eccentricity": 0.0,
        "Inclination(deg)": 45.0,
        "Latitude(deg)": 38.79369136535253,
        "Longitude(deg)": 171.7094451434685,
        "Mean Anomaly(deg)": 117.94476385399437,
        "RAAN(deg)": 144.99683100672812,
        "Satellite Name": "Constellation 1 645",
        "Satellite Number": 645,
        "Semi-Major Axis(m)": 7083131.272910544,
        "Time(s)": 56
    }
]